ONEWEB-0199             
1 48234U 21031AA  24311.25156907  .00000274  00000+0  70574-3 0  9992
2 48234  87.9026  46.6037 0001861 101.1128 259.0211 13.14504901171020
ONEWEB-0203             
1 48235U 21031AB  24311.31817362  .00000092  00000+0  21444-3 0  9999
2 48235  87.9027  46.5923 0001999  92.7470 267.3889 13.14505057171040
ONEWEB-0197             
1 48236U 21031AC  24311.52194511 -.00000090  00000+0 -27717-3 0  9996
2 48236  87.9029  46.5613 0001760 112.3554 247.7763 13.14504443170980
ONEWEB-0194             
1 48237U 21031AD  24311.50053948  .00000254  00000+0  65173-3 0  9991
2 48237  87.9032  46.5600 0001941  97.9294 262.2056 13.14503697171158
ONEWEB-0193             
1 48238U 21031AE  24311.51639567 -.00000017  00000+0 -79466-4 0  9990
2 48238  87.9033  46.5648 0001690  96.4087 263.7236 13.14503652171109
ONEWEB-0191             
1 48239U 21031AF  24311.29914011 -.00000164  00000+0 -47700-3 0  9994
2 48239  87.9026  46.5871 0001697  97.0656 263.0667 13.14504613170935
ONEWEB-0195             
1 48240U 21031AG  24311.50450205 -.00000103  00000+0 -31148-3 0  9992
2 48240  87.9028  46.5453 0001381  90.5935 269.5353 13.14502134170943
ONEWEB-0201             
1 48241U 21031AH  24311.26504684  .00000315  00000+0  81480-3 0  9994
2 48241  87.9029  46.6321 0001504 100.7204 259.4095 13.14504774171146
